STARLINK-37577          
1 69452U 26127K   26188.19195263  .00149876  00000+0  96441-3 0  9996
2 69452  53.1608 162.5686 0001593  53.1091 307.0076 15.75244638  4565
STARLINK-37500          
1 69453U 26127L   26187.50344228  .00078044  00000+0  50678-3 0  9998
2 69453  53.1567 166.0982 0001745 157.9950 202.1146 15.75320641  4454
STARLINK-37575          
1 69454U 26127M   26187.23606737  .00185916  00000+0  11862-2 0  9993
2 69454  53.1592 167.2701 0001261 129.6575 230.4557 15.75322038  4415
STARLINK-37642          
1 69455U 26127N   26187.57142206  .00183317  00000+0  11674-2 0  9991
2 69455  53.1564 165.8110 0002413 197.6476 162.4461 15.75373423  4465
STARLINK-37513          
1 69456U 26127P   26188.08336806 -.00051618  00000+0 -33416-3 0  9999
2 69456  53.1590 162.6305 0000718  93.8939 241.8716 15.75270709  5844
STARLINK-37563          
1 69457U 26127Q   26188.00194169  .00069794  00000+0  45570-3 0  9992
2 69457  53.1593 163.5149 0001685  70.6873 289.4330 15.75239667  4531
STARLINK-37565          
1 69458U 26127R   26187.48496141  .00156300  00000+0  99982-3 0  9995
2 69458  53.1585 165.9731 0000907 141.8800 218.2285 15.75358917  4453
STARLINK-37498          
1 69459U 26127S   26187.37622561  .00101695  00000+0  65710-3 0  9990
2 69459  53.1568 166.7246 0001575 129.8729 230.2430 15.75326623  4436
STARLINK-37384          
1 69460U 26127T   26187.93362615  .00141640  00000+0  91192-3 0  9992
2 69460  53.1595 163.7996 0000966 105.4323 254.6804 15.75260232  4528
STARLINK-37707          
1 69461U 26127U   26187.99286256  .00164907  00000+0  10577-2 0  9993
2 69461  53.1592 163.4523 0001293  55.9485 304.1658 15.75269815  4536
STARLINK-37525          
1 69462U 26127V   26187.54387196  .00074249  00000+0  48298-3 0  9991
2 69462  53.1578 165.6308 0001485  43.9843 316.1296 15.75300642  4461
STARLINK-37526          
1 69463U 26127W   26187.98378498  .00131385  00000+0  84741-3 0  9993
2 69463  53.1569 163.3897 0001262  79.0699 281.0463 15.75254812  4533
STARLINK-37574          
1 69464U 26127X   26187.41731147  .00126730  00000+0  81374-3 0  9993
2 69464  53.1581 166.2591 0001452 135.8716 224.2420 15.75374398  4447
STARLINK-37535          
1 69465U 26127Y   26187.98345802  .00143316  00000+0  92244-3 0  9992
2 69465  53.1566 163.3879 0001517  52.9413 307.1745 15.75260762  4533
STARLINK-37583          
1 69466U 26127Z   26187.32209976  .00280949  00000+0  17673-2 0  9998
2 69466  53.1588 166.3614 0001633  78.3773 281.7430 15.75360594  4439
STARLINK-37546          
1 69467U 26127AA  26187.34479054  .00232588  00000+0  14715-2 0  9997
2 69467  53.1565 166.5098 0001204  99.5960 260.5196 15.75372741  4431
STARLINK-37532          
1 69468U 26127AB  26187.30848870  .00196454  00000+0  12522-2 0  9995
2 69468  53.1592 166.2714 0001578  85.3832 274.7369 15.75312230  4435
STARLINK-37708          
1 69469U 26127AC  26187.53478954  .00185050  00000+0  11817-2 0  9999
2 69469  53.1572 165.5606 0000871 120.5281 239.5825 15.75304051  4462
STARLINK-37686          
1 69470U 26127AD  26187.53058725  .00156600  00000+0  10035-2 0  9991
2 69470  53.1582 165.5343 0002728  29.1072 331.0100 15.75314706  4460
STARLINK-37451          
1 69471U 26127AE  26188.17040237  .00221383  00000+0  10961-2 0  9991
2 69471  53.1580 161.6787 0001412  76.6314 283.4866 15.80884775  4578
DTC TEST OBJECT A       
1 69472U 26128A   26188.08837517  .00008517  00000+0  13920-3 0  9999
2 69472  55.0004 213.1635 0010720 349.9934  10.0886 15.53436963  4323
DTC TEST OBJECT B       
1 69473U 26128B   26178.37654890  .00024134  00000+0  33565-3 0  9992
2 69473  55.0021 257.9040 0009934 325.3113  34.7274 15.56860342  2801
TJS-25                  
1 69474U 26129A   26187.81240304 -.00000356  00000+0  00000+0 0  9999
2 69474   5.9632 330.2942 0002881 283.0545  84.1200  1.00267897   269
STARLINK-37816          
1 69478U 26131A   26188.08336806 -.02366440  00000+0 -17811-1 0  9991
2 69478  97.2847 209.5115 0001847  67.5949  27.6043 15.75894002  5206
STARLINK-37878          
1 69479U 26131B   26188.00744803  .00210067  00000+0  10669-2 0  9998
2 69479  97.2849 209.4220 0000545  94.7426 265.3905 15.80904747  5292
STARLINK-37817          
1 69480U 26131C   26187.49392727  .00326322  00000+0  16340-2 0  9990
2 69480  97.2845 208.8964 0001604  63.9700 296.1734 15.80915835  5212
STARLINK-37727          
1 69481U 26131D   26188.08336806 -.02398674  00000+0 -18267-1 0  9995
2 69481  97.2849 209.5170 0001768  75.1025  32.3716 15.75680774  5204
STARLINK-37814          
1 69482U 26131E   26187.80892863  .00249278  00000+0  12605-2 0  9997
2 69482  97.2850 209.2330 0001257  70.4492 289.6912 15.80900120  5268
STARLINK-37869          
1 69483U 26131F   26188.06162950 -.00697421  00000+0 -41902-2 0  9995
2 69483  97.2851 209.5015 0000828 202.8410 157.2821 15.79471682  5305
STARLINK-37873          
1 69484U 26131G   26188.08336806 -.02453246  00000+0 -15618-1 0  9992
2 69484  97.2846 209.5270 0001718  81.6218  47.3718 15.79748746  5202
