OBJECT_NAME,OBJECT_ID,EPOCH,MEAN_MOTION,ECCENTRICITY,INCLINATION,RA_OF_ASC_NODE,ARG_OF_PERICENTER,MEAN_ANOMALY,EPHEMERIS_TYPE,CLASSIFICATION_TYPE,NORAD_CAT_ID,ELEMENT_SET_NO,REV_AT_EPOCH,BSTAR,MEAN_MOTION_DOT,MEAN_MOTION_DDOT
STARLINK-37577,2026-127K,2026-07-07T04:36:24.707232,15.75244638,.0001593,53.1608,162.5686,53.1091,307.0076,0,U,69452,999,456,.96441E-3,.149876E-2,0
STARLINK-37500,2026-127L,2026-07-06T12:04:57.412992,15.75320641,.0001745,53.1567,166.0982,157.9950,202.1146,0,U,69453,999,445,.50678E-3,.78044E-3,0
STARLINK-37575,2026-127M,2026-07-06T05:39:56.220768,15.75322038,.0001261,53.1592,167.2701,129.6575,230.4557,0,U,69454,999,441,.11862E-2,.185916E-2,0
STARLINK-37642,2026-127N,2026-07-06T13:42:50.865984,15.75373423,.0002413,53.1564,165.8110,197.6476,162.4461,0,U,69455,999,446,.11674E-2,.183317E-2,0
STARLINK-37513,2026-127P,2026-07-07T02:00:03.000384,15.75270709,.0000718,53.1590,162.6305,93.8939,241.8716,0,U,69456,999,584,-.33416E-3,-.51618E-3,0
STARLINK-37563,2026-127Q,2026-07-07T00:02:47.762016,15.75239667,.0001685,53.1593,163.5149,70.6873,289.4330,0,U,69457,999,453,.4557E-3,.69794E-3,0
STARLINK-37565,2026-127R,2026-07-06T11:38:20.665824,15.75358917,.0000907,53.1585,165.9731,141.8800,218.2285,0,U,69458,999,445,.99982E-3,.1563E-2,0
STARLINK-37498,2026-127S,2026-07-06T09:01:45.892704,15.75326623,.0001575,53.1568,166.7246,129.8729,230.2430,0,U,69459,999,443,.6571E-3,.101695E-2,0
STARLINK-37384,2026-127T,2026-07-06T22:24:25.299360,15.75260232,.0000966,53.1595,163.7996,105.4323,254.6804,0,U,69460,999,452,.91192E-3,.14164E-2,0
STARLINK-37707,2026-127U,2026-07-06T23:49:43.325184,15.75269815,.0001293,53.1592,163.4523,55.9485,304.1658,0,U,69461,999,453,.10577E-2,.164907E-2,0
STARLINK-37525,2026-127V,2026-07-06T13:03:10.537344,15.75300642,.0001485,53.1578,165.6308,43.9843,316.1296,0,U,69462,999,446,.48298E-3,.74249E-3,0
STARLINK-37526,2026-127W,2026-07-06T23:36:39.022272,15.75254812,.0001262,53.1569,163.3897,79.0699,281.0463,0,U,69463,999,453,.84741E-3,.131385E-2,0
STARLINK-37574,2026-127X,2026-07-06T10:00:55.711008,15.75374398,.0001452,53.1581,166.2591,135.8716,224.2420,0,U,69464,999,444,.81374E-3,.12673E-2,0
STARLINK-37535,2026-127Y,2026-07-06T23:36:10.772928,15.75260762,.0001517,53.1566,163.3879,52.9413,307.1745,0,U,69465,999,453,.92244E-3,.143316E-2,0
STARLINK-37583,2026-127Z,2026-07-06T07:43:49.419264,15.75360594,.00016331,53.1588,166.3614,78.3773,281.7430,0,U,69466,999,443,.17673329E-2,.280949E-2,0
STARLINK-37546,2026-127AA,2026-07-06T08:16:29.902656,15.75372741,.00012047,53.1565,166.5098,99.5960,260.5196,0,U,69467,999,443,.14714955E-2,.232588E-2,0
STARLINK-37532,2026-127AB,2026-07-06T07:24:13.423680,15.75312230,.00015787,53.1592,166.2714,85.3832,274.7369,0,U,69468,999,443,.12521761E-2,.196454E-2,0
STARLINK-37708,2026-127AC,2026-07-06T12:50:05.816256,15.75304051,.0000871,53.1572,165.5606,120.5281,239.5825,0,U,69469,999,446,.11817E-2,.18505E-2,0
STARLINK-37686,2026-127AD,2026-07-06T12:44:02.738400,15.75314706,.0002728,53.1582,165.5343,29.1072,331.0100,0,U,69470,999,446,.10035E-2,.1566E-2,0
STARLINK-37451,2026-127AE,2026-07-07T04:05:22.764768,15.80884775,.0001412,53.1580,161.6787,76.6314,283.4866,0,U,69471,999,457,.10961E-2,.221383E-2,0
DTC TEST OBJECT A,2026-128A,2026-07-07T02:07:15.614688,15.53436963,.001072,55.0004,213.1635,349.9934,10.0886,0,U,69472,999,432,.1392E-3,.8517E-4,0
DTC TEST OBJECT B,2026-128B,2026-06-27T09:02:13.824960,15.56860342,.0009934,55.0021,257.9040,325.3113,34.7274,0,U,69473,999,280,.3356545E-3,.24134E-3,0
TJS-25,2026-129A,2026-07-06T19:29:51.622656,1.00267897,.0002881,5.9632,330.2942,283.0545,84.1200,0,U,69474,999,26,0,-.356E-5,0
STARLINK-37816,2026-131A,2026-07-07T02:00:03.000384,15.75894002,.0001847,97.2847,209.5115,67.5949,27.6043,0,U,69478,999,520,-.17811E-1,-.236644E-1,0
STARLINK-37878,2026-131B,2026-07-07T00:10:43.509792,15.80904747,.0000545,97.2849,209.4220,94.7426,265.3905,0,U,69479,999,529,.10669E-2,.210067E-2,0
STARLINK-37817,2026-131C,2026-07-06T11:51:15.316128,15.80915835,.00016045,97.2845,208.8964,63.9700,296.1734,0,U,69480,999,521,.16339801E-2,.326322E-2,0
STARLINK-37727,2026-131D,2026-07-07T02:00:03.000384,15.75680774,.0001768,97.2849,209.5170,75.1025,32.3716,0,U,69481,999,520,-.18267E-1,-.2398674E-1,0
STARLINK-37814,2026-131E,2026-07-06T19:24:51.433632,15.80900120,.0001257,97.2850,209.2330,70.4492,289.6912,0,U,69482,999,526,.12605E-2,.249278E-2,0
STARLINK-37869,2026-131F,2026-07-07T01:28:44.788800,15.79471682,.0000828,97.2851,209.5015,202.8410,157.2821,0,U,69483,999,530,-.41902E-2,-.697421E-2,0
STARLINK-37873,2026-131G,2026-07-07T02:00:03.000384,15.79748746,.0001718,97.2846,209.5270,81.6218,47.3718,0,U,69484,999,520,-.15618E-1,-.2453246E-1,0
